ATLAS CENTAUR R/B       
1 06155U 72065B   26058.96374538  .00001467  00000+0  20293-3 0  9999
2 06155  35.0029   2.7489 0034426 287.8250  71.8697 14.77654271839821
SL-8 R/B                
1 08459U 75112B   26059.18211506  .00000215  00000+0  79183-4 0  9997
2 08459  74.0609  36.4010 0014663 133.4608 226.7769 14.38197071630507
SL-3 R/B                
1 10114U 77057B   26059.13554100  .00014555  00000+0  30845-3 0  9996
2 10114  97.5753 230.6389 0006572 324.6579  35.4233 15.45176812666853
SEASAT 1                
1 10967U 78064A   26059.08866685  .00000235  00000+0  10429-3 0  9995
2 10967 108.0134 105.3525 0002063 289.5819  70.5103 14.46151632505128
SL-14 R/B               
1 11267U 79011B   26059.12358252  .00000556  00000+0  52345-4 0  9993
2 11267  82.5221 105.6499 0017658  89.7768 270.5475 14.91895022527358
SL-8 R/B                
1 11574U 79089B   26059.10452918  .00000210  00000+0  71382-4 0  9990
2 11574  74.0676 108.7884 0017064 282.4400  77.4847 14.42343421434729
SL-14 R/B               
1 11672U 80005B   26059.13031348  .00000600  00000+0  58195-4 0  9992
2 11672  82.5162 316.3029 0015321 189.7772 170.3152 14.90916895475063
SL-8 R/B                
1 12139U 81003B   26059.13155420  .00016713  00000+0  43368-3 0  9995
2 12139  82.9402 298.8599 0262778 211.8354 146.6768 15.10557805313236
SL-3 R/B                
1 12465U 81046B   26059.11468994  .00012981  00000+0  30448-3 0  9993
2 12465  81.2322 301.2390 0020332  54.4614 305.8520 15.41705261436952
SL-3 R/B                
1 12904U 81103B   26059.16937956  .00005655  00000+0  25168-3 0  9992
2 12904  81.1565 224.5999 0012742 320.5266  39.5036 15.21238808971780
SL-3 R/B                
1 13068U 82013B   26059.11573986  .00006109  00000+0  26551-3 0  9991
2 13068  81.1765 171.9883 0022170 209.9115 150.0852 15.21897645402896
SL-3 R/B                
1 13154U 82039B   26059.11490515  .00002878  00000+0  17386-3 0  9996
2 13154  81.1581 227.0002 0029941 355.6819   4.4143 15.10014681380199
