CCSDS_OMM_VERS = 2.0
CREATION_DATE  = 
ORIGINATOR     = 

OBJECT_NAME    = ATLAS CENTAUR R/B
OBJECT_ID      = 1972-065B
CENTER_NAME    = EARTH
REF_FRAME      = TEME
TIME_SYSTEM    = UTC
MEAN_ELEMENT_THEORY = SGP/SGP4

EPOCH          = 2026-02-27T23:07:47.600832
MEAN_MOTION    = 14.77654271
ECCENTRICITY   = .0034426
INCLINATION    = 35.0029
RA_OF_ASC_NODE = 2.7489
ARG_OF_PERICENTER = 287.8250
MEAN_ANOMALY   = 71.8697

EPHEMERIS_TYPE = 0
CLASSIFICATION_TYPE = U
NORAD_CAT_ID   = 6155
ELEMENT_SET_NO = 999
REV_AT_EPOCH   = 83982
BSTAR          = .20293E-3
MEAN_MOTION_DOT = .1467E-4
MEAN_MOTION_DDOT = 0

CCSDS_OMM_VERS = 2.0
CREATION_DATE  = 
ORIGINATOR     = 

OBJECT_NAME    = SL-8 R/B
OBJECT_ID      = 1975-112B
CENTER_NAME    = EARTH
REF_FRAME      = TEME
TIME_SYSTEM    = UTC
MEAN_ELEMENT_THEORY = SGP/SGP4

EPOCH          = 2026-02-28T04:22:14.741184
MEAN_MOTION    = 14.38197071
ECCENTRICITY   = .0014663
INCLINATION    = 74.0609
RA_OF_ASC_NODE = 36.4010
ARG_OF_PERICENTER = 133.4608
MEAN_ANOMALY   = 226.7769

EPHEMERIS_TYPE = 0
CLASSIFICATION_TYPE = U
NORAD_CAT_ID   = 8459
ELEMENT_SET_NO = 999
REV_AT_EPOCH   = 63050
BSTAR          = .79183E-4
MEAN_MOTION_DOT = .215E-5
MEAN_MOTION_DDOT = 0

CCSDS_OMM_VERS = 2.0
CREATION_DATE  = 
ORIGINATOR     = 

OBJECT_NAME    = SL-3 R/B
OBJECT_ID      = 1977-057B
CENTER_NAME    = EARTH
REF_FRAME      = TEME
TIME_SYSTEM    = UTC
MEAN_ELEMENT_THEORY = SGP/SGP4

EPOCH          = 2026-02-28T03:15:10.742400
MEAN_MOTION    = 15.45176812
ECCENTRICITY   = .0006572
INCLINATION    = 97.5753
RA_OF_ASC_NODE = 230.6389
ARG_OF_PERICENTER = 324.6579
MEAN_ANOMALY   = 35.4233

EPHEMERIS_TYPE = 0
CLASSIFICATION_TYPE = U
NORAD_CAT_ID   = 10114
ELEMENT_SET_NO = 999
REV_AT_EPOCH   = 66685
BSTAR          = .30845E-3
MEAN_MOTION_DOT = .14555E-3
MEAN_MOTION_DDOT = 0

CCSDS_OMM_VERS = 2.0
CREATION_DATE  = 
ORIGINATOR     = 

OBJECT_NAME    = SEASAT 1
OBJECT_ID      = 1978-064A
CENTER_NAME    = EARTH
REF_FRAME      = TEME
TIME_SYSTEM    = UTC
MEAN_ELEMENT_THEORY = SGP/SGP4

EPOCH          = 2026-02-28T02:07:40.815840
MEAN_MOTION    = 14.46151632
ECCENTRICITY   = .0002063
INCLINATION    = 108.0134
RA_OF_ASC_NODE = 105.3525
ARG_OF_PERICENTER = 289.5819
MEAN_ANOMALY   = 70.5103

EPHEMERIS_TYPE = 0
CLASSIFICATION_TYPE = U
NORAD_CAT_ID   = 10967
ELEMENT_SET_NO = 999
REV_AT_EPOCH   = 50512
BSTAR          = .10429E-3
MEAN_MOTION_DOT = .235E-5
MEAN_MOTION_DDOT = 0

CCSDS_OMM_VERS = 2.0
CREATION_DATE  = 
ORIGINATOR     = 

OBJECT_NAME    = SL-14 R/B
OBJECT_ID      = 1979-011B
CENTER_NAME    = EARTH
REF_FRAME      = TEME
TIME_SYSTEM    = UTC
MEAN_ELEMENT_THEORY = SGP/SGP4

EPOCH          = 2026-02-28T02:57:57.529728
MEAN_MOTION    = 14.91895022
ECCENTRICITY   = .0017658
INCLINATION    = 82.5221
RA_OF_ASC_NODE = 105.6499
ARG_OF_PERICENTER = 89.7768
MEAN_ANOMALY   = 270.5475

EPHEMERIS_TYPE = 0
CLASSIFICATION_TYPE = U
NORAD_CAT_ID   = 11267
ELEMENT_SET_NO = 999
REV_AT_EPOCH   = 52735
BSTAR          = .52345E-4
MEAN_MOTION_DOT = .556E-5
MEAN_MOTION_DDOT = 0

CCSDS_OMM_VERS = 2.0
CREATION_DATE  = 
ORIGINATOR     = 

OBJECT_NAME    = SL-8 R/B
OBJECT_ID      = 1979-089B
CENTER_NAME    = EARTH
REF_FRAME      = TEME
TIME_SYSTEM    = UTC
MEAN_ELEMENT_THEORY = SGP/SGP4

EPOCH          = 2026-02-28T02:30:31.321152
MEAN_MOTION    = 14.42343421
ECCENTRICITY   = .0017064
INCLINATION    = 74.0676
RA_OF_ASC_NODE = 108.7884
ARG_OF_PERICENTER = 282.4400
MEAN_ANOMALY   = 77.4847

EPHEMERIS_TYPE = 0
CLASSIFICATION_TYPE = U
NORAD_CAT_ID   = 11574
ELEMENT_SET_NO = 999
REV_AT_EPOCH   = 43472
BSTAR          = .71382E-4
MEAN_MOTION_DOT = .21E-5
MEAN_MOTION_DDOT = 0

CCSDS_OMM_VERS = 2.0
CREATION_DATE  = 
ORIGINATOR     = 

OBJECT_NAME    = SL-14 R/B
OBJECT_ID      = 1980-005B
CENTER_NAME    = EARTH
REF_FRAME      = TEME
TIME_SYSTEM    = UTC
MEAN_ELEMENT_THEORY = SGP/SGP4

EPOCH          = 2026-02-28T03:07:39.084672
MEAN_MOTION    = 14.90916895
ECCENTRICITY   = .0015321
INCLINATION    = 82.5162
RA_OF_ASC_NODE = 316.3029
ARG_OF_PERICENTER = 189.7772
MEAN_ANOMALY   = 170.3152

EPHEMERIS_TYPE = 0
CLASSIFICATION_TYPE = U
NORAD_CAT_ID   = 11672
ELEMENT_SET_NO = 999
REV_AT_EPOCH   = 47506
BSTAR          = .58195E-4
MEAN_MOTION_DOT = .6E-5
MEAN_MOTION_DDOT = 0

CCSDS_OMM_VERS = 2.0
CREATION_DATE  = 
ORIGINATOR     = 

OBJECT_NAME    = SL-8 R/B
OBJECT_ID      = 1981-003B
CENTER_NAME    = EARTH
REF_FRAME      = TEME
TIME_SYSTEM    = UTC
MEAN_ELEMENT_THEORY = SGP/SGP4

EPOCH          = 2026-02-28T03:09:26.282880
MEAN_MOTION    = 15.10557805
ECCENTRICITY   = .0262778
INCLINATION    = 82.9402
RA_OF_ASC_NODE = 298.8599
ARG_OF_PERICENTER = 211.8354
MEAN_ANOMALY   = 146.6768

EPHEMERIS_TYPE = 0
CLASSIFICATION_TYPE = U
NORAD_CAT_ID   = 12139
ELEMENT_SET_NO = 999
REV_AT_EPOCH   = 31323
BSTAR          = .43368E-3
MEAN_MOTION_DOT = .16713E-3
MEAN_MOTION_DDOT = 0

CCSDS_OMM_VERS = 2.0
CREATION_DATE  = 
ORIGINATOR     = 

OBJECT_NAME    = SL-3 R/B
OBJECT_ID      = 1981-046B
CENTER_NAME    = EARTH
REF_FRAME      = TEME
TIME_SYSTEM    = UTC
MEAN_ELEMENT_THEORY = SGP/SGP4

EPOCH          = 2026-02-28T02:45:09.210816
MEAN_MOTION    = 15.41705261
ECCENTRICITY   = .0020332
INCLINATION    = 81.2322
RA_OF_ASC_NODE = 301.2390
ARG_OF_PERICENTER = 54.4614
MEAN_ANOMALY   = 305.8520

EPHEMERIS_TYPE = 0
CLASSIFICATION_TYPE = U
NORAD_CAT_ID   = 12465
ELEMENT_SET_NO = 999
REV_AT_EPOCH   = 43695
BSTAR          = .30448E-3
MEAN_MOTION_DOT = .12981E-3
MEAN_MOTION_DDOT = 0

CCSDS_OMM_VERS = 2.0
CREATION_DATE  = 
ORIGINATOR     = 

OBJECT_NAME    = SL-3 R/B
OBJECT_ID      = 1981-103B
CENTER_NAME    = EARTH
REF_FRAME      = TEME
TIME_SYSTEM    = UTC
MEAN_ELEMENT_THEORY = SGP/SGP4

EPOCH          = 2026-02-28T04:03:54.393984
MEAN_MOTION    = 15.21238808
ECCENTRICITY   = .0012742
INCLINATION    = 81.1565
RA_OF_ASC_NODE = 224.5999
ARG_OF_PERICENTER = 320.5266
MEAN_ANOMALY   = 39.5036

EPHEMERIS_TYPE = 0
CLASSIFICATION_TYPE = U
NORAD_CAT_ID   = 12904
ELEMENT_SET_NO = 999
REV_AT_EPOCH   = 97178
BSTAR          = .25168E-3
MEAN_MOTION_DOT = .5655E-4
MEAN_MOTION_DDOT = 0

CCSDS_OMM_VERS = 2.0
CREATION_DATE  = 
ORIGINATOR     = 

OBJECT_NAME    = SL-3 R/B
OBJECT_ID      = 1982-013B
CENTER_NAME    = EARTH
REF_FRAME      = TEME
TIME_SYSTEM    = UTC
MEAN_ELEMENT_THEORY = SGP/SGP4

EPOCH          = 2026-02-28T02:46:39.923904
MEAN_MOTION    = 15.21897645
ECCENTRICITY   = .002217
INCLINATION    = 81.1765
RA_OF_ASC_NODE = 171.9883
ARG_OF_PERICENTER = 209.9115
MEAN_ANOMALY   = 150.0852

EPHEMERIS_TYPE = 0
CLASSIFICATION_TYPE = U
NORAD_CAT_ID   = 13068
ELEMENT_SET_NO = 999
REV_AT_EPOCH   = 40289
BSTAR          = .26551E-3
MEAN_MOTION_DOT = .6109E-4
MEAN_MOTION_DDOT = 0

CCSDS_OMM_VERS = 2.0
CREATION_DATE  = 
ORIGINATOR     = 

OBJECT_NAME    = SL-3 R/B
OBJECT_ID      = 1982-039B
CENTER_NAME    = EARTH
REF_FRAME      = TEME
TIME_SYSTEM    = UTC
MEAN_ELEMENT_THEORY = SGP/SGP4

EPOCH          = 2026-02-28T02:45:27.804960
MEAN_MOTION    = 15.10014681
ECCENTRICITY   = .0029941
INCLINATION    = 81.1581
RA_OF_ASC_NODE = 227.0002
ARG_OF_PERICENTER = 355.6819
MEAN_ANOMALY   = 4.4143

EPHEMERIS_TYPE = 0
CLASSIFICATION_TYPE = U
NORAD_CAT_ID   = 13154
ELEMENT_SET_NO = 999
REV_AT_EPOCH   = 38019
BSTAR          = .17386E-3
MEAN_MOTION_DOT = .2878E-4
MEAN_MOTION_DDOT = 0

